ONEWEB-0151             
1 48066U 21025AA  26034.22842563  .00000022  00000+0  25519-4 0  9990
2 48066  87.9033 346.8465 0001675  83.5105 276.6215 13.13469250236007
ONEWEB-0170             
1 48067U 21025AB  26034.23688252  .00000330  00000+0  86926-3 0  9995
2 48067  87.9028 346.8472 0001344  74.4940 285.6337 13.13470631235963
ONEWEB-0168             
1 48068U 21025AC  26034.22164734  .00000189  00000+0  48332-3 0  9990
2 48068  87.9031 346.8391 0001910  86.7449 273.3899 13.13472069235972
ONEWEB-0173             
1 48069U 21025AD  26033.60376701 -.00000029  00000+0 -11311-3 0  9993
2 48069  87.9032 346.9691 0001844  94.3146 265.8194 13.13470444236131
ONEWEB-0171             
1 48070U 21025AE  26034.25042825  .00000144  00000+0  36042-3 0  9998
2 48070  87.9022 346.8563 0001670  82.7694 277.3625 13.13469517236030
ONEWEB-0172             
1 48071U 21025AF  26033.62069851  .00000227  00000+0  58753-3 0  9992
2 48071  87.9028 346.9682 0001716  85.2203 274.9122 13.13470731236849
ONEWEB-0174             
1 48072U 21025AG  26033.60207115 -.00000039  00000+0 -14240-3 0  9994
2 48072  87.9021 346.9732 0001970  82.5805 277.5548 13.13470174236166
ONEWEB-0175             
1 48073U 21025AH  26034.24197012  .00000259  00000+0  67489-3 0  9995
2 48073  87.9034 346.8188 0001451  86.0232 274.1063 13.13470139235909
ONEWEB-0177             
1 48074U 21025AJ  26034.25381642  .00000087  00000+0  20257-3 0  9992
2 48074  87.9036 346.8371 0001946  85.7263 274.4089 13.13469999236099
ONEWEB-0178             
1 48075U 21025AK  26033.58694597  .00003739  00000+0  10194-1 0  9998
2 48075  87.9012 347.0028 0001611  86.9670 273.1644 13.13502367236056
ONEWEB-0108             
1 48076U 21025AL  26034.23180630  .00000286  00000+0  74780-3 0  9997
2 48076  87.9031 346.8302 0001922  75.7799 284.3544 13.13469945236061
ONEWEB-0169             
1 48077U 21025AM  26034.26397009 -.00000131  00000+0 -39294-3 0  9993
2 48077  87.9025 346.8421 0001940  75.1822 284.9522 13.13470763234721
ONEWEB-0176             
1 48210U 21031A   26034.21168956  .00000078  00000+0  17473-3 0  9994
2 48210  87.9024 316.4096 0001659  80.6708 279.4610 13.14502598230716
ONEWEB-0184             
1 48211U 21031B   26034.26084631 -.00000123  00000+0 -36579-3 0  9998
2 48211  87.9044 316.3863 0001010  99.2827 260.8417 13.14503398230694
ONEWEB-0179             
1 48212U 21031C   26034.23150959  .00000370  00000+0  96331-3 0  9997
2 48212  87.9035 316.3969 0001967  83.0675 277.0678 13.14502957230739
ONEWEB-0180             
1 48213U 21031D   26034.26402090 -.00000123  00000+0 -36756-3 0  9990
2 48213  87.9037 316.3907 0001775  89.1066 271.0267 13.14503442230628
