[{"OBJECT_NAME":"ONEWEB-0151","OBJECT_ID":"2021-025AA","EPOCH":"2026-02-03T05:28:55.974432","MEAN_MOTION":13.1346925,"ECCENTRICITY":0.00016757,"INCLINATION":87.9033,"RA_OF_ASC_NODE":346.8465,"ARG_OF_PERICENTER":83.5105,"MEAN_ANOMALY":276.6215,"EPHEMERIS_TYPE":0,"CLASSIFICATION_TYPE":"U","NORAD_CAT_ID":48066,"ELEMENT_SET_NO":999,"REV_AT_EPOCH":23600,"BSTAR":2.551929e-5,"MEAN_MOTION_DOT":2.2e-7,"MEAN_MOTION_DDOT":0},{"OBJECT_NAME":"ONEWEB-0170","OBJECT_ID":"2021-025AB","EPOCH":"2026-02-03T05:41:06.649728","MEAN_MOTION":13.13470631,"ECCENTRICITY":0.00013449,"INCLINATION":87.9028,"RA_OF_ASC_NODE":346.8472,"ARG_OF_PERICENTER":74.494,"MEAN_ANOMALY":285.6337,"EPHEMERIS_TYPE":0,"CLASSIFICATION_TYPE":"U","NORAD_CAT_ID":48067,"ELEMENT_SET_NO":999,"REV_AT_EPOCH":23596,"BSTAR":0.00086926103,"MEAN_MOTION_DOT":3.3e-6,"MEAN_MOTION_DDOT":0},{"OBJECT_NAME":"ONEWEB-0168","OBJECT_ID":"2021-025AC","EPOCH":"2026-02-03T05:19:10.330176","MEAN_MOTION":13.13472069,"ECCENTRICITY":0.00019108,"INCLINATION":87.9031,"RA_OF_ASC_NODE":346.8391,"ARG_OF_PERICENTER":86.7449,"MEAN_ANOMALY":273.3899,"EPHEMERIS_TYPE":0,"CLASSIFICATION_TYPE":"U","NORAD_CAT_ID":48068,"ELEMENT_SET_NO":999,"REV_AT_EPOCH":23597,"BSTAR":0.00048331528,"MEAN_MOTION_DOT":1.89e-6,"MEAN_MOTION_DDOT":0},{"OBJECT_NAME":"ONEWEB-0173","OBJECT_ID":"2021-025AD","EPOCH":"2026-02-02T14:29:25.469664","MEAN_MOTION":13.13470444,"ECCENTRICITY":0.0001844,"INCLINATION":87.9032,"RA_OF_ASC_NODE":346.9691,"ARG_OF_PERICENTER":94.3146,"MEAN_ANOMALY":265.8194,"EPHEMERIS_TYPE":0,"CLASSIFICATION_TYPE":"U","NORAD_CAT_ID":48069,"ELEMENT_SET_NO":999,"REV_AT_EPOCH":23613,"BSTAR":-0.00011311474,"MEAN_MOTION_DOT":-2.9e-7,"MEAN_MOTION_DDOT":0},{"OBJECT_NAME":"ONEWEB-0171","OBJECT_ID":"2021-025AE","EPOCH":"2026-02-03T06:00:37.000800","MEAN_MOTION":13.13469517,"ECCENTRICITY":0.00016709,"INCLINATION":87.9022,"RA_OF_ASC_NODE":346.8563,"ARG_OF_PERICENTER":82.7694,"MEAN_ANOMALY":277.3625,"EPHEMERIS_TYPE":0,"CLASSIFICATION_TYPE":"U","NORAD_CAT_ID":48070,"ELEMENT_SET_NO":999,"REV_AT_EPOCH":23603,"BSTAR":0.0003604203,"MEAN_MOTION_DOT":1.44e-6,"MEAN_MOTION_DDOT":0},{"OBJECT_NAME":"ONEWEB-0172","OBJECT_ID":"2021-025AF","EPOCH":"2026-02-02T14:53:48.351264","MEAN_MOTION":13.13470731,"ECCENTRICITY":0.00017167,"INCLINATION":87.9028,"RA_OF_ASC_NODE":346.9682,"ARG_OF_PERICENTER":85.2203,"MEAN_ANOMALY":274.9122,"EPHEMERIS_TYPE":0,"CLASSIFICATION_TYPE":"U","NORAD_CAT_ID":48071,"ELEMENT_SET_NO":999,"REV_AT_EPOCH":23684,"BSTAR":0.00058753448,"MEAN_MOTION_DOT":2.27e-6,"MEAN_MOTION_DDOT":0},{"OBJECT_NAME":"ONEWEB-0174","OBJECT_ID":"2021-025AG","EPOCH":"2026-02-02T14:26:58.947360","MEAN_MOTION":13.13470174,"ECCENTRICITY":0.00019708,"INCLINATION":87.9021,"RA_OF_ASC_NODE":346.9732,"ARG_OF_PERICENTER":82.5805,"MEAN_ANOMALY":277.5548,"EPHEMERIS_TYPE":0,"CLASSIFICATION_TYPE":"U","NORAD_CAT_ID":48072,"ELEMENT_SET_NO":999,"REV_AT_EPOCH":23616,"BSTAR":-0.0001424013,"MEAN_MOTION_DOT":-3.9e-7,"MEAN_MOTION_DDOT":0},{"OBJECT_NAME":"ONEWEB-0175","OBJECT_ID":"2021-025AH","EPOCH":"2026-02-03T05:48:26.218368","MEAN_MOTION":13.13470139,"ECCENTRICITY":0.00014517,"INCLINATION":87.9034,"RA_OF_ASC_NODE":346.8188,"ARG_OF_PERICENTER":86.0232,"MEAN_ANOMALY":274.1063,"EPHEMERIS_TYPE":0,"CLASSIFICATION_TYPE":"U","NORAD_CAT_ID":48073,"ELEMENT_SET_NO":999,"REV_AT_EPOCH":23590,"BSTAR":0.00067488971,"MEAN_MOTION_DOT":2.59e-6,"MEAN_MOTION_DDOT":0},{"OBJECT_NAME":"ONEWEB-0177","OBJECT_ID":"2021-025AJ","EPOCH":"2026-02-03T06:05:29.738688","MEAN_MOTION":13.13469999,"ECCENTRICITY":0.00019469,"INCLINATION":87.9036,"RA_OF_ASC_NODE":346.8371,"ARG_OF_PERICENTER":85.7263,"MEAN_ANOMALY":274.4089,"EPHEMERIS_TYPE":0,"CLASSIFICATION_TYPE":"U","NORAD_CAT_ID":48074,"ELEMENT_SET_NO":999,"REV_AT_EPOCH":23609,"BSTAR":0.00020257163,"MEAN_MOTION_DOT":8.7e-7,"MEAN_MOTION_DDOT":0},{"OBJECT_NAME":"ONEWEB-0178","OBJECT_ID":"2021-025AK","EPOCH":"2026-02-02T14:05:12.131808","MEAN_MOTION":13.13502367,"ECCENTRICITY":0.00016118,"INCLINATION":87.9012,"RA_OF_ASC_NODE":347.0028,"ARG_OF_PERICENTER":86.967,"MEAN_ANOMALY":273.1644,"EPHEMERIS_TYPE":0,"CLASSIFICATION_TYPE":"U","NORAD_CAT_ID":48075,"ELEMENT_SET_NO":999,"REV_AT_EPOCH":23605,"BSTAR":0.010193805,"MEAN_MOTION_DOT":3.739e-5,"MEAN_MOTION_DDOT":0},{"OBJECT_NAME":"ONEWEB-0108","OBJECT_ID":"2021-025AL","EPOCH":"2026-02-03T05:33:48.064320","MEAN_MOTION":13.13469945,"ECCENTRICITY":0.00019222,"INCLINATION":87.9031,"RA_OF_ASC_NODE":346.8302,"ARG_OF_PERICENTER":75.7799,"MEAN_ANOMALY":284.3544,"EPHEMERIS_TYPE":0,"CLASSIFICATION_TYPE":"U","NORAD_CAT_ID":48076,"ELEMENT_SET_NO":999,"REV_AT_EPOCH":23606,"BSTAR":0.00074780259,"MEAN_MOTION_DOT":2.86e-6,"MEAN_MOTION_DDOT":0},{"OBJECT_NAME":"ONEWEB-0169","OBJECT_ID":"2021-025AM","EPOCH":"2026-02-03T06:20:07.015776","MEAN_MOTION":13.13470763,"ECCENTRICITY":0.00019404,"INCLINATION":87.9025,"RA_OF_ASC_NODE":346.8421,"ARG_OF_PERICENTER":75.1822,"MEAN_ANOMALY":284.9522,"EPHEMERIS_TYPE":0,"CLASSIFICATION_TYPE":"U","NORAD_CAT_ID":48077,"ELEMENT_SET_NO":999,"REV_AT_EPOCH":23472,"BSTAR":-0.00039294208,"MEAN_MOTION_DOT":-1.31e-6,"MEAN_MOTION_DDOT":0},{"OBJECT_NAME":"ONEWEB-0176","OBJECT_ID":"2021-031A","EPOCH":"2026-02-03T05:04:49.977984","MEAN_MOTION":13.14502598,"ECCENTRICITY":0.00016598,"INCLINATION":87.9024,"RA_OF_ASC_NODE":316.4096,"ARG_OF_PERICENTER":80.6708,"MEAN_ANOMALY":279.461,"EPHEMERIS_TYPE":0,"CLASSIFICATION_TYPE":"U","NORAD_CAT_ID":48210,"ELEMENT_SET_NO":999,"REV_AT_EPOCH":23071,"BSTAR":0.00017473016,"MEAN_MOTION_DOT":7.8e-7,"MEAN_MOTION_DDOT":0},{"OBJECT_NAME":"ONEWEB-0184","OBJECT_ID":"2021-031B","EPOCH":"2026-02-03T06:15:37.121184","MEAN_MOTION":13.14503398,"ECCENTRICITY":0.00010107,"INCLINATION":87.9044,"RA_OF_ASC_NODE":316.3863,"ARG_OF_PERICENTER":99.2827,"MEAN_ANOMALY":260.8417,"EPHEMERIS_TYPE":0,"CLASSIFICATION_TYPE":"U","NORAD_CAT_ID":48211,"ELEMENT_SET_NO":999,"REV_AT_EPOCH":23069,"BSTAR":-0.00036578703,"MEAN_MOTION_DOT":-1.23e-6,"MEAN_MOTION_DDOT":0},{"OBJECT_NAME":"ONEWEB-0179","OBJECT_ID":"2021-031C","EPOCH":"2026-02-03T05:33:22.428576","MEAN_MOTION":13.14502957,"ECCENTRICITY":0.00019678,"INCLINATION":87.9035,"RA_OF_ASC_NODE":316.3969,"ARG_OF_PERICENTER":83.0675,"MEAN_ANOMALY":277.0678,"EPHEMERIS_TYPE":0,"CLASSIFICATION_TYPE":"U","NORAD_CAT_ID":48212,"ELEMENT_SET_NO":999,"REV_AT_EPOCH":23073,"BSTAR":0.0009633147,"MEAN_MOTION_DOT":3.7e-6,"MEAN_MOTION_DDOT":0},{"OBJECT_NAME":"ONEWEB-0180","OBJECT_ID":"2021-031D","EPOCH":"2026-02-03T06:20:11.405760","MEAN_MOTION":13.14503442,"ECCENTRICITY":0.00017754,"INCLINATION":87.9037,"RA_OF_ASC_NODE":316.3907,"ARG_OF_PERICENTER":89.1066,"MEAN_ANOMALY":271.0267,"EPHEMERIS_TYPE":0,"CLASSIFICATION_TYPE":"U","NORAD_CAT_ID":48213,"ELEMENT_SET_NO":999,"REV_AT_EPOCH":23062,"BSTAR":-0.00036755842,"MEAN_MOTION_DOT":-1.23e-6,"MEAN_MOTION_DDOT":0}]
